[{"OBJECT_NAME":"TEVEL2-8","OBJECT_ID":"2025-052AF","EPOCH":"2026-03-09T16:02:08.542752","MEAN_MOTION":15.28392908,"ECCENTRICITY":0.0008031,"INCLINATION":97.4055,"RA_OF_ASC_NODE":324.2923,"ARG_OF_PERICENTER":124.9191,"MEAN_ANOMALY":235.2804,"EPHEMERIS_TYPE":0,"CLASSIFICATION_TYPE":"U","NORAD_CAT_ID":63239,"ELEMENT_SET_NO":999,"REV_AT_EPOCH":5480,"BSTAR":0.00069303947,"MEAN_MOTION_DOT":0.0001913,"MEAN_MOTION_DDOT":0},{"OBJECT_NAME":"STARLINK-35593","OBJECT_ID":"2025-236X","EPOCH":"2026-03-09T10:07:14.554272","MEAN_MOTION":15.30193624,"ECCENTRICITY":0.00012594,"INCLINATION":53.1598,"RA_OF_ASC_NODE":105.1111,"ARG_OF_PERICENTER":73.6462,"MEAN_ANOMALY":286.4677,"EPHEMERIS_TYPE":0,"CLASSIFICATION_TYPE":"U","NORAD_CAT_ID":66107,"ELEMENT_SET_NO":999,"REV_AT_EPOCH":2290,"BSTAR":0.00062980482,"MEAN_MOTION_DOT":0.00018336,"MEAN_MOTION_DDOT":0}]
